CUTE-1 (CO-55)          
1 27844U 03031E   18124.54767967  .00000032  00000-0  34179-4 0  9992
2 27844  98.6879 133.8459 0010697 133.2555 226.9517 14.22109457769991
CUBESAT XI-IV (CO-57)   
1 27848U 03031J   18124.49486432  .00000026  00000-0  31621-4 0  9997
2 27848  98.6966 134.1772 0010427 142.8191 217.3710 14.21713977769858
CUBESAT XI 5            
1 28895U 05043F   18123.97369421  .00000132  00000-0  34246-4 0  9999
2 28895  97.9032 277.2356 0016267 204.7269 155.3156 14.63537989667413
CUTE-1.7+APD II (CO-65) 
1 32785U 08021C   18123.80348541  .00000175  00000-0  24628-4 0  9993
2 32785  97.5491 138.0969 0013067 178.7329 181.3924 14.88104987542506
AAUSAT-II               
1 32788U 08021F   18123.62609495  .00000774  00000-0  77035-4 0  9999
2 32788  97.5254 151.9808 0013184 132.9243 227.3087 14.94307993543522
DELFI-C3 (DO-64)        
1 32789U 08021G   18124.39347329  .00000706  00000-0  52574-4 0  9996
2 32789  97.5156 180.3063 0014270  88.6798 271.6064 15.05962527545197
SEEDS II (CO-66)        
1 32791U 08021J   18124.03158556  .00000186  00000-0  24416-4 0  9998
2 32791  97.5388 143.5722 0013998 159.1750 201.0042 14.90528866542937
SWISSCUBE               
1 35932U 09051B   18123.97850711  .00000123  00000-0  38926-4 0  9998
2 35932  98.5391 274.0920 0007329 355.6657   4.4475 14.56150025457000
BEESAT                  
1 35933U 09051C   18124.14631441  .00000096  00000-0  32704-4 0  9993
2 35933  98.5432 275.7834 0005866  11.3122 348.8206 14.56255104457131
ITUPSAT 1               
1 35935U 09051E   18123.96997070  .00000071  00000-0  27449-4 0  9990
2 35935  98.5543 275.8563 0008024   3.3892 356.7358 14.55433112456894
M-CUBED & EXP-1 PRIME   
1 37855U 11061F   18123.64603800  .00001063  00000-0  62342-4 0  9990
2 37855 101.7206 163.3970 0176936 213.9899 144.9877 15.04303769354481
STRAND-1                
1 39090U 13009E   18124.53165052  .00000022  00000-0  22901-4 0  9999
2 39090  98.5261 331.4759 0010375  69.7003 290.5297 14.35022593271566
AIST-2 (RS-43)          
1 39133U 13015D   18124.51120826  .00000057  00000-0  16630-4 0  9992
2 39133  64.8741 349.8788 0026574 229.1291 130.7527 15.04535376276647
SOMP                    
1 39134U 13015E   18124.55339060  .00000982  00000-0  56058-4 0  9994
2 39134  64.8636 268.0440 0016930 217.4631 142.5317 15.19055948278278
BEESAT 3                
1 39135U 13015F   18123.77862423  .00001057  00000-0  63584-4 0  9998
2 39135  64.8688 283.3340 0025967 240.0153 119.8395 15.16587463277918
BEESAT-2                
1 39136U 13015G   18123.86469573  .00000669  00000-0  44613-4 0  9998
2 39136  64.8693 285.7231 0025436 239.6409 120.2201 15.16059594277482
NEE-01 PEGASUS          
1 39151U 13018B   18124.21776571  .00000148  00000-0  26564-4 0  9994
2 39151  97.9732 218.5981 0018580  91.5157 268.8183 14.79888002271016
ESTCUBE 1               
1 39161U 13021C   18124.45698209  .00000139  00000-0  29925-4 0  9990
2 39161  98.0075 210.9821 0009187 189.9225 170.1804 14.72053197268012
POPACS 1                
1 39268U 13055D   18123.76079185  .00005501  00000-0  15518-3 0  9994
2 39268  81.0060  32.8869 0639140 357.4000   2.3902 14.33957205238089
POPACS 2                
1 39269U 13055E   18124.15398185  .00003027  00000-0  86710-4 0  9997
2 39269  81.0177  53.5185 0693734  50.8048 315.2664 14.21878701236882
POPACS 3                
1 39270U 13055F   18124.53964597  .00001480  00000-0  44715-4 0  9997
2 39270  81.0185  64.8207 0720877  84.3334 283.9524 14.14483423236186
ZACUBE-1 (TSHEPISOSAT)  
1 39417U 13066B   18123.65300363  .00000185  00000-0  29958-4 0  9992
2 39417  97.5911 154.6598 0057700 301.8798  57.6808 14.80918938240204
WNISAT-1                
1 39423U 13066H   18124.40813070  .00000092  00000-0  27487-4 0  9999
2 39423  97.7247  91.8863 0175949 153.7170 207.3085 14.52945484235879
GOMX 1                  
1 39430U 13066Q   18124.48279432  .00000175  00000-0  40143-4 0  9999
2 39430  97.6947 104.5143 0153015 108.3053 253.4863 14.59061708236784
EAGLE 2                 
1 39436U 13066W   18124.35697329  .00330273  00000-0  13583-2 0  9991
2 39436  97.7116 258.5347 0010185 278.5564  81.4551 15.85068277246458
CUBEBUG-2 (LO-74)       
1 39440U 13066AA  18124.54042908  .00000170  00000-0  30899-4 0  9995
2 39440  97.6037 142.3637 0079885 338.3844  21.4000 14.75654325239485
NEE-02 KRYSAOR          
1 39441U 13066AB  18123.58207614  .00000118  00000-0  23983-4 0  9994
2 39441  97.6039 139.7160 0081541 346.4258  13.4759 14.74763848238043
FUNCUBE-1 (AO-73)       
1 39444U 13066AE  18123.60473355  .00000234  00000-0  35441-4 0  9998
2 39444  97.5920 156.0830 0056785 297.4797  62.0651 14.81691519238465
UWE-3                   
1 39446U 13066AG  18123.96096201  .00000168  00000-0  29307-4 0  9990
2 39446  97.5959 148.0020 0069163 321.0437  38.5803 14.78187667237994
BRITE-TORONTO           
1 40020U 14033L   18124.55210144  .00000012  00000-0  10431-4 0  9991
2 40020  97.7920 345.0764 0088202  24.8389 335.7022 14.66486423207190
DUCHIFAT-1              
1 40021U 14033M   18123.74477768  .00000302  00000-0  36983-4 0  9991
2 40021  97.9169  42.3823 0012320 331.5592  28.4952 14.90274426210336
NANOSATC-BR1            
1 40024U 14033Q   18124.30132836  .00000343  00000-0  41943-4 0  9998
2 40024  97.9106  41.2695 0011615 332.2182  27.8413 14.89542351210343
QB50P1                  
1 40025U 14033R   18124.32414568  .00000266  00000-0  34484-4 0  9992
2 40025  97.9068  39.8093 0011927 336.1374  23.9289 14.88691159210267
QB50P2                  
1 40032U 14033Y   18123.72857421  .00000231  00000-0  31088-4 0  9991
2 40032  97.9023  37.9704 0011255 333.8316  26.2331 14.88237420210113
PERSEUS-M2              
1 40037U 14033AD  18123.71836524  .00000093  00000-0  16809-4 0  9996
2 40037  97.9015  35.6362 0013942 341.1952  18.8746 14.86347324209924
PERSEUS-M1              
1 40039U 14033AF  18123.73204325  .00000111  00000-0  18986-4 0  9997
2 40039  97.9014  35.0382 0013699 337.7825  22.2795 14.85969196209873
POLYITAN-1              
1 40042U 14033AJ  18124.30408106  .00000298  00000-0  38214-4 0  9990
2 40042  97.9142  39.8978 0013938 323.5860  36.4408 14.88370943210183
TIGRISAT                
1 40043U 14033AK  18123.64317212  .00000140  00000-0  28289-4 0  9991
2 40043  97.8150   2.5729 0059784 343.8590  16.0713 14.74127111208044
AEROCUBE 6A             
1 40045U 14033AM  18123.87894029  .00000284  00000-0  48544-4 0  9999
2 40045  97.8311   4.9394 0057815 337.7024  22.1673 14.75119825207750
AEROCUBE 6B             
1 40046U 14033AN  18123.67641742  .00000285  00000-0  48810-4 0  9997
2 40046  97.8283   4.6139 0056832 337.6649  22.2086 14.75109594208104
UKUBE-1                 
1 40074U 14037F   18124.31852125  .00000283  00000-0  41322-4 0  9992
2 40074  98.3808 259.3771 0005990  96.4654 263.7254 14.83775666206790
BRITE-PL 2              
1 40119U 14049B   18124.18711491  .00000067  00000-0  14462-4 0  9995
2 40119  97.9172 213.1086 0018808 119.6371 240.6719 14.84278997200770
FIREBIRD 4              
1 40378U 15003C   18124.44926963  .00002120  00000-0  89982-4 0  9995
2 40378  99.0911  17.5753 0132336  16.5511 343.9975 15.17072595179692
GRIFEX                  
1 40379U 15003D   18124.33494531  .00001534  00000-0  70755-4 0  9991
2 40379  99.0947  13.7956 0139377  28.8054 332.0778 15.14221229179467
EXOCUBE                 
1 40380U 15003E   18123.67498382  .00001262  00000-0  61398-4 0  9998
2 40380  99.0996  10.9983 0143888  37.6862 323.4339 15.12439248179219
TIANWANG 1C (TW-1C)     
1 40926U 15051B   18124.53117829  .00006330  00000-0  12124-3 0  9990
2 40926  97.1874 167.0866 0012040  80.5535  27.4296 15.48315684146552
TIANWANG 1A (TW-1A)     
1 40928U 15051D   18124.37675639  .00002395  00000-0  65021-4 0  9994
2 40928  97.1889 159.2274 0013740 115.6716   3.6280 15.38477580146041
EXACTVIEW 9             
1 40936U 15052G   18122.55532928  .00001894  00000-0  17667-3 0  9990
2 40936   6.0013 119.3165 0010162  69.7729 290.4525 14.76384443140219
ATHENOXAT 1             
1 41168U 15077C   18124.39359083  .00001835  00000-0  63902-4 0  9997
2 41168  14.9903 340.7951 0011752 150.2650  33.0448 15.12683068131739
GALASSIA                
1 41170U 15077E   18124.31819578  .00001776  00000-0  59710-4 0  9998
2 41170  14.9896 336.1221 0013094 172.7368 187.3144 15.13076074131772
VELOX 2                 
1 41171U 15077F   18124.46469300  .00001460  00000-0  46767-4 0  9997
2 41171  14.9924 355.5989 0008945 116.2838 243.8402 15.10593974131613
HORYU-IV                
1 41340U 16012D   18124.49569723  .00000438  00000-0  26786-4 0  9991
2 41340  31.0046 224.9652 0014160  19.5186 340.5990 15.00959546121323
E-ST@R-II               
1 41459U 16025D   18124.41079858  .00000670  00000-0  39920-4 0  9995
2 41459  98.1402 184.7732 0169264 295.5033  62.8766 15.04274235110848
AAUSAT 4                
1 41460U 16025E   18124.43023452  .00001429  00000-0  78609-4 0  9998
2 41460  98.1343 185.2255 0161199 291.5437  66.8659 15.05653979110902
DIWATA-1                
1 41463U 98067HT  18124.45789020  .00007578  00000-0  68209-4 0  9995
2 41463  51.6397 195.7505 0001247 347.0027 105.3257 15.69363143115135
BEESAT-4                
1 41619U 16040W   18123.69293155  .00001198  00000-0  55456-4 0  9995
2 41619  97.4184 187.4491 0012458  34.2128 325.9908 15.21990747 91326
CANX-7                  
1 41788U 16059F   18124.45929106  .00008666  00000-0  14796-2 0  9996
2 41788  98.2053 190.7606 0029105 226.7898 133.0873 14.68897397 85689
ALSAT 1N                
1 41789U 16059G   18124.42562118  .00000092  00000-0  26708-4 0  9993
2 41789  98.1220 187.8172 0027364 223.1464 136.7596 14.64147693 85613
RAVAN                   
1 41849U 16067B   18124.18763629  .00001283  00000-0  11475-3 0  9999
2 41849  97.9249 212.2898 0006811 317.2654  42.8037 14.97701146 80545
